start=new Date('2022-01-20T00:00:00.000Z').valueOf();
sats=[{"TLE_LINE1":"1 48279U 21036D   22019.58334491 -.00010681  00000-0 -69920-3 0  9990","MEAN_ANOMALY":"305.7907","OBJECT_NAME":"STARLINK-2580","APOAPSIS":"548.669","NORAD_CAT_ID":"48279","DECAY_DATE":null,"MEAN_MOTION":"15.06400168","MEAN_ELEMENT_THEORY":"SGP4","LAUNCH_DATE":"2021-04-29","CLASSIFICATION_TYPE":"U","PERIOD":"95.592","CENTER_NAME":"EARTH","MEAN_MOTION_DDOT":"0.0000000000000","MEAN_MOTION_DOT":"-0.00010681","REV_AT_EPOCH":"359","OBJECT_ID":"2021-036D","EPOCH":"2022-01-19T14:00:01.000224","OBJECT_TYPE":"PAYLOAD","RCS_SIZE":"LARGE","ELEMENT_SET_NO":"999","REF_FRAME":"TEME","ARG_OF_PERICENTER":"56.2741","TLE_LINE2":"2 48279  53.0571 325.7465 0002103  56.2741 305.7907 15.06400168  3595","PERIAPSIS":"545.757","SITE":"AFETR","TIME_SYSTEM":"UTC","FILE":"3277432","ECCENTRICITY":"0.00021030","COUNTRY_CODE":"US","INCLINATION":"53.0571","RA_OF_ASC_NODE":"325.7465","GP_ID":"194191701","BSTAR":"-0.00069920000000","SEMIMAJOR_AXIS":"6925.348","EPHEMERIS_TYPE":"0"},{"NORAD_CAT_ID":"48280","DECAY_DATE":null,"MEAN_MOTION":"15.06394303","MEAN_ANOMALY":"285.8840","TLE_LINE1":"1 48280U 21036E   22019.37750572  .00005735  00000-0  40362-3 0  9992","OBJECT_NAME":"STARLINK-2565","APOAPSIS":"548.306","PERIOD":"95.593","CENTER_NAME":"EARTH","MEAN_MOTION_DDOT":"0.0000000000000","MEAN_ELEMENT_THEORY":"SGP4","LAUNCH_DATE":"2021-04-29","CLASSIFICATION_TYPE":"U","MEAN_MOTION_DOT":"0.00005735","REV_AT_EPOCH":"4046","OBJECT_ID":"2021-036E","ELEMENT_SET_NO":"999","REF_FRAME":"TEME","EPOCH":"2022-01-19T09:03:36.494208","OBJECT_TYPE":"PAYLOAD","RCS_SIZE":"LARGE","TIME_SYSTEM":"UTC","FILE":"3277432","ARG_OF_PERICENTER":"74.2320","PERIAPSIS":"546.156","TLE_LINE2":"2 48280  53.0551  36.6617 0001552  74.2320 285.8840 15.06394303 40466","SITE":"AFETR","COUNTRY_CODE":"US","INCLINATION":"53.0551","ECCENTRICITY":"0.00015520","EPHEMERIS_TYPE":"0","GP_ID":"194191951","RA_OF_ASC_NODE":"36.6617","BSTAR":"0.00040362000000","SEMIMAJOR_AXIS":"6925.366"},{"OBJECT_TYPE":"PAYLOAD","EPOCH":"2022-01-19T09:22:11.472384","RCS_SIZE":"LARGE","REF_FRAME":"TEME","ELEMENT_SET_NO":"999","SITE":"AFETR","TLE_LINE2":"2 48281  53.0569  16.6125 0001557  59.1354 300.9788 15.06385559 40746","PERIAPSIS":"546.180","ARG_OF_PERICENTER":"59.1354","TIME_SYSTEM":"UTC","FILE":"3277432","ECCENTRICITY":"0.00015570","COUNTRY_CODE":"US","INCLINATION":"53.0569","RA_OF_ASC_NODE":"16.6125","GP_ID":"194193202","SEMIMAJOR_AXIS":"6925.393","BSTAR":"0.00006531800000","EPHEMERIS_TYPE":"0","APOAPSIS":"548.336","MEAN_ANOMALY":"300.9788","TLE_LINE1":"1 48281U 21036F   22019.39041056  .00000691  00000-0  65318-4 0  9990","OBJECT_NAME":"STARLINK-2520","NORAD_CAT_ID":"48281","MEAN_MOTION":"15.06385559","DECAY_DATE":null,"LAUNCH_DATE":"2021-04-29","CLASSIFICATION_TYPE":"U","MEAN_ELEMENT_THEORY":"SGP4","MEAN_MOTION_DDOT":"0.0000000000000","PERIOD":"95.593","CENTER_NAME":"EARTH","MEAN_MOTION_DOT":"0.00000691","OBJECT_ID":"2021-036F","REV_AT_EPOCH":"4074"},{"MEAN_MOTION_DOT":"0.00001528","OBJECT_ID":"2021-036G","REV_AT_EPOCH":"4068","LAUNCH_DATE":"2021-04-29","CLASSIFICATION_TYPE":"U","MEAN_ELEMENT_THEORY":"SGP4","MEAN_MOTION_DDOT":"0.0000000000000","PERIOD":"95.593","CENTER_NAME":"EARTH","APOAPSIS":"548.350","MEAN_ANOMALY":"295.3360","TLE_LINE1":"1 48282U 21036G   22019.41390797  .00001528  00000-0  12148-3 0  9995","OBJECT_NAME":"STARLINK-2558","NORAD_CAT_ID":"48282","MEAN_MOTION":"15.06381816","DECAY_DATE":null,"GP_ID":"194192953","RA_OF_ASC_NODE":"21.5191","SEMIMAJOR_AXIS":"6925.404","BSTAR":"0.00012148000000","EPHEMERIS_TYPE":"0","ECCENTRICITY":"0.00015610","COUNTRY_CODE":"US","INCLINATION":"53.0555","TLE_LINE2":"2 48282  53.0555  21.5191 0001561  64.7791 295.3360 15.06381816 40680","SITE":"AFETR","PERIAPSIS":"546.188","ARG_OF_PERICENTER":"64.7791","TIME_SYSTEM":"UTC","FILE":"3277432","OBJECT_TYPE":"PAYLOAD","EPOCH":"2022-01-19T09:56:01.648608","RCS_SIZE":"LARGE","REF_FRAME":"TEME","ELEMENT_SET_NO":"999"},{"MEAN_ANOMALY":"297.9537","TLE_LINE1":"1 48283U 21036H   22019.34387695  .00006859  00000-0  47897-3 0  9992","OBJECT_NAME":"STARLINK-2516","APOAPSIS":"548.463","NORAD_CAT_ID":"48283","DECAY_DATE":null,"MEAN_MOTION":"15.06394575","MEAN_ELEMENT_THEORY":"SGP4","CLASSIFICATION_TYPE":"U","LAUNCH_DATE":"2021-04-29","PERIOD":"95.592","CENTER_NAME":"EARTH","MEAN_MOTION_DDOT":"0.0000000000000","MEAN_MOTION_DOT":"0.00006859","REV_AT_EPOCH":"4067","OBJECT_ID":"2021-036H","EPOCH":"2022-01-19T08:15:10.968480","OBJECT_TYPE":"PAYLOAD","RCS_SIZE":"LARGE","ELEMENT_SET_NO":"999","REF_FRAME":"TEME","ARG_OF_PERICENTER":"62.1632","SITE":"AFETR","TLE_LINE2":"2 48283  53.0548  21.8318 0001780  62.1632 297.9537 15.06394575 40675","PERIAPSIS":"545.997","TIME_SYSTEM":"UTC","FILE":"3277432","ECCENTRICITY":"0.00017800","COUNTRY_CODE":"US","INCLINATION":"53.0548","RA_OF_ASC_NODE":"21.8318","GP_ID":"194192201","BSTAR":"0.00047897000000","SEMIMAJOR_AXIS":"6925.365","EPHEMERIS_TYPE":"0"},{"MEAN_MOTION":"15.06393741","DECAY_DATE":null,"NORAD_CAT_ID":"48284","APOAPSIS":"548.240","TLE_LINE1":"1 48284U 21036J   22019.40653423  .00004142  00000-0  29683-3 0  9991","MEAN_ANOMALY":"294.7106","OBJECT_NAME":"STARLINK-2564","MEAN_MOTION_DDOT":"0.0000000000000","CENTER_NAME":"EARTH","PERIOD":"95.593","LAUNCH_DATE":"2021-04-29","CLASSIFICATION_TYPE":"U","MEAN_ELEMENT_THEORY":"SGP4","OBJECT_ID":"2021-036J","REV_AT_EPOCH":"4067","MEAN_MOTION_DOT":"0.00004142","REF_FRAME":"TEME","ELEMENT_SET_NO":"999","RCS_SIZE":"LARGE","OBJECT_TYPE":"PAYLOAD","EPOCH":"2022-01-19T09:45:24.557472","FILE":"3277432","TIME_SYSTEM":"UTC","SITE":"AFETR","TLE_LINE2":"2 48284  53.0549  21.5324 0001455  65.4034 294.7106 15.06393741 40673","PERIAPSIS":"546.225","ARG_OF_PERICENTER":"65.4034","INCLINATION":"53.0549","COUNTRY_CODE":"US","ECCENTRICITY":"0.00014550","EPHEMERIS_TYPE":"0","SEMIMAJOR_AXIS":"6925.368","BSTAR":"0.00029683000000","GP_ID":"194192451","RA_OF_ASC_NODE":"21.5324"},{"BSTAR":"0.00011751000000","SEMIMAJOR_AXIS":"6925.381","GP_ID":"194192703","RA_OF_ASC_NODE":"21.5534","EPHEMERIS_TYPE":"0","ECCENTRICITY":"0.00015490","INCLINATION":"53.0567","COUNTRY_CODE":"US","ARG_OF_PERICENTER":"73.3473","SITE":"AFETR","TLE_LINE2":"2 48285  53.0567  21.5534 0001549  73.3473 286.7686 15.06389435 40675","PERIAPSIS":"546.173","FILE":"3277432","TIME_SYSTEM":"UTC","RCS_SIZE":"LARGE","EPOCH":"2022-01-19T09:40:05.561760","OBJECT_TYPE":"PAYLOAD","ELEMENT_SET_NO":"999","REF_FRAME":"TEME","REV_AT_EPOCH":"4067","OBJECT_ID":"2021-036K","MEAN_MOTION_DOT":"0.00001469","MEAN_ELEMENT_THEORY":"SGP4","LAUNCH_DATE":"2021-04-29","CLASSIFICATION_TYPE":"U","CENTER_NAME":"EARTH","PERIOD":"95.593","MEAN_MOTION_DDOT":"0.0000000000000","TLE_LINE1":"1 48285U 21036K   22019.40284215  .00001469  00000-0  11751-3 0  9997","MEAN_ANOMALY":"286.7686","OBJECT_NAME":"STARLINK-2548","APOAPSIS":"548.319","DECAY_DATE":null,"MEAN_MOTION":"15.06389435","NORAD_CAT_ID":"48285"},{"EPHEMERIS_TYPE":"0","SEMIMAJOR_AXIS":"6925.398","BSTAR":"0.00015007000000","RA_OF_ASC_NODE":"21.2822","GP_ID":"194193453","INCLINATION":"53.0574","COUNTRY_CODE":"US","ECCENTRICITY":"0.00017310","FILE":"3277432","TIME_SYSTEM":"UTC","SITE":"AFETR","TLE_LINE2":"2 48286  53.0574  21.2822 0001731  63.8441 296.2726 15.06383930 40689","PERIAPSIS":"546.064","ARG_OF_PERICENTER":"63.8441","REF_FRAME":"TEME","ELEMENT_SET_NO":"999","RCS_SIZE":"LARGE","OBJECT_TYPE":"PAYLOAD","EPOCH":"2022-01-19T11:10:20.451072","OBJECT_ID":"2021-036L","REV_AT_EPOCH":"4068","MEAN_MOTION_DOT":"0.00001953","MEAN_MOTION_DDOT":"0.0000000000000","PERIOD":"95.593","CENTER_NAME":"EARTH","CLASSIFICATION_TYPE":"U","LAUNCH_DATE":"2021-04-29","MEAN_ELEMENT_THEORY":"SGP4","MEAN_MOTION":"15.06383930","DECAY_DATE":null,"NORAD_CAT_ID":"48286","APOAPSIS":"548.462","MEAN_ANOMALY":"296.2726","TLE_LINE1":"1 48286U 21036L   22019.46551448  .00001953  00000-0  15007-3 0  9995","OBJECT_NAME":"STARLINK-2547"},{"MEAN_MOTION_DOT":"0.00001936","REV_AT_EPOCH":"4067","OBJECT_ID":"2021-036M","PERIOD":"95.593","CENTER_NAME":"EARTH","MEAN_MOTION_DDOT":"0.0000000000000","MEAN_ELEMENT_THEORY":"SGP4","CLASSIFICATION_TYPE":"U","LAUNCH_DATE":"2021-04-29","NORAD_CAT_ID":"48287","DECAY_DATE":null,"MEAN_MOTION":"15.06386898","TLE_LINE1":"1 48287U 21036M   22019.39547694  .00001936  00000-0  14891-3 0  9997","MEAN_ANOMALY":"296.5397","OBJECT_NAME":"STARLINK-2566","APOAPSIS":"548.308","EPHEMERIS_TYPE":"0","RA_OF_ASC_NODE":"21.5840","GP_ID":"194191702","BSTAR":"0.00014891000000","SEMIMAJOR_AXIS":"6925.389","COUNTRY_CODE":"US","INCLINATION":"53.0561","ECCENTRICITY":"0.00015230","TIME_SYSTEM":"UTC","FILE":"3277432","ARG_OF_PERICENTER":"63.5748","PERIAPSIS":"546.199","TLE_LINE2":"2 48287  53.0561  21.5840 0001523  63.5748 296.5397 15.06386898 40677","SITE":"AFETR","ELEMENT_SET_NO":"999","REF_FRAME":"TEME","EPOCH":"2022-01-19T09:29:29.207616","OBJECT_TYPE":"PAYLOAD","RCS_SIZE":"LARGE"},{"MEAN_MOTION_DOT":"0.00001302","OBJECT_ID":"2021-036N","REV_AT_EPOCH":"4067","CLASSIFICATION_TYPE":"U","LAUNCH_DATE":"2021-04-29","MEAN_ELEMENT_THEORY":"SGP4","MEAN_MOTION_DDOT":"0.0000000000000","PERIOD":"95.593","CENTER_NAME":"EARTH","APOAPSIS":"548.223","TLE_LINE1":"1 48288U 21036N   22019.39179214  .00001302  00000-0  10630-3 0  9991","MEAN_ANOMALY":"298.2437","OBJECT_NAME":"STARLINK-2562","NORAD_CAT_ID":"48288","MEAN_MOTION":"15.06385926","DECAY_DATE":null,"RA_OF_ASC_NODE":"21.6120","GP_ID":"194191952","SEMIMAJOR_AXIS":"6925.392","BSTAR":"0.00010630000000","EPHEMERIS_TYPE":"0","ECCENTRICITY":"0.00013960","COUNTRY_CODE":"US","INCLINATION":"53.0570","TLE_LINE2":"2 48288  53.0570  21.6120 0001396  61.8693 298.2437 15.06385926 40673","SITE":"AFETR","PERIAPSIS":"546.290","ARG_OF_PERICENTER":"61.8693","TIME_SYSTEM":"UTC","FILE":"3277432","OBJECT_TYPE":"PAYLOAD","EPOCH":"2022-01-19T09:24:10.840896","RCS_SIZE":"LARGE","REF_FRAME":"TEME","ELEMENT_SET_NO":"999"}];
